1 25414U 98046B   15335.63575965  .00000565  00000-0  25996-3 0  9996,2 25414  44.9970  26.8420 0005082 198.4516 161.6146 14.32107831904224
1 25414U 98046B   15336.96119400  .00000549  00000-0  25398-3 0  9999,2 25414  44.9970  20.6173 0005154 205.0449 155.0147 14.32109472904413
1 25414U 98046B   15337.51927117 +.00000541 +00000-0 +25111-3 0  9998,2 25414 044.9970 017.9963 0005192 207.6389 152.4181 14.32110164904310
1 25414U 98046B   15339.19350090  .00000458  00000-0  22038-3 0  9996,2 25414  44.9969  10.1332 0005293 215.6008 144.4485 14.32111972904734
1 25414U 98046B   15340.44917132  .00000555  00000-0  25613-3 0  9992,2 25414  44.9968   4.2359 0005349 221.4083 138.6358 14.32114283904918
1 25414U 98046B   15341.56532177  .00000556  00000-0  25642-3 0  9991,2 25414  44.9969 358.9939 0005394 226.6366 133.4031 14.32115839905070
1 25414U 98046B   15343.16978636  .00000460  00000-0  22118-3 0  9992,2 25414  44.9969 351.4584 0005461 234.0333 126.0007 14.32117435905307
1 25414U 98046B   15344.35569382  .00000556  00000-0  25661-3 0  9990,2 25414  44.9969 345.8889 0005486 239.5206 120.5099 14.32119361905476
1 25414U 98046B   15344.91376751 +.00000484 +00000-0 +22998-3 0  9998,2 25414 044.9969 343.2679 0005498 242.1123 117.9167 14.32119645905376
1 25414U 98046B   15345.82063648  .00000559  00000-0  25752-3 0  9991,2 25414  44.9969 339.0088 0005518 246.1557 113.8711 14.32121195905688
1 25414U 98046B   15345.96015479 +.00000538 +00000-0 +24979-3 0  9992,2 25414 044.9969 338.3535 0005522 246.7184 113.3081 14.32121235905527
1 25414U 98046B   15346.93678191  .00000504  00000-0  23747-3 0  9991,2 25414  44.9968 333.7666 0005558 250.7138 109.3106 14.32122349905848
1 25414U 98046B   15348.05292622  .00000494  00000-0  23354-3 0  9999,2 25414  44.9967 328.5246 0005554 255.6929 104.3300 14.32123833906000
1 25414U 98046B   15349.16906899  .00000580  00000-0  26534-3 0  9999,2 25414  44.9966 323.2824 0005557 260.4986  99.5232 14.32126005906163
1 25414U 98046B   15350.42472815  .00000588  00000-0  26825-3 0  9997,2 25414  44.9966 317.3850 0005541 266.0246  93.9966 14.32128064906349
1 25414U 98046B   15350.91303982 +.00000507 +00000-0 +23834-3 0  9997,2 25414 044.9966 315.0915 0005540 268.1522 091.8690 14.32128340906231
1 25414U 98046B   15351.81990364  .00000495  00000-0  23398-3 0  9994,2 25414  44.9967 310.8323 0005524 272.1660  87.8553 14.32129627906544
1 25414U 98046B   15351.95942108 +.00000504 +00000-0 +23738-3 0  9991,2 25414 044.9966 310.1770 0005518 272.7769 087.2445 14.32129883906381
1 25414U 98046B   15352.86628405  .00000583  00000-0  26643-3 0  9998,2 25414  44.9967 305.9178 0005500 276.8071  83.2149 14.32131587906693
1 25414U 98046B   15352.93604280 +.00000473 +00000-0 +22598-3 0  9994,2 25414 044.9967 305.5901 0005498 277.0809 082.9411 14.32131080906529
1 25414U 98046B   15354.19169825  .00000471  00000-0  22514-3 0  9991,2 25414  44.9966 299.6929 0005460 282.5284  77.4951 14.32132704906889
1 25414U 98046B   15355.23807555  .00000663  00000-0  29571-3 0  9999,2 25414  44.9965 294.7785 0005421 287.1164  72.9088 14.32135426907032
1 25414U 98046B   15356.28445199  .00000626  00000-0  28215-3 0  9990,2 25414  44.9963 289.8640 0005376 291.6667  68.3606 14.32136905907186
1 25414U 98046B   15356.84251858 +.00000640 +00000-0 +28721-3 0  9997,2 25414 044.9962 287.2429 0005359 294.0394 065.9891 14.32137998907088
1 25414U 98046B   15358.16792599  .00000585  00000-0  26702-3 0  9991,2 25414  44.9961 281.0179 0005282 299.9460  60.0861 14.32140064907456
1 25414U 98046B   15359.21429869  .00000621  00000-0  28027-3 0  9998,2 25414  44.9959 276.1034 0005221 304.6556  55.3798 14.32142196907602
1 25414U 98046B   15360.26067061  .00000538  00000-0  24967-3 0  9993,2 25414  44.9958 271.1888 0005153 309.3950  50.6439 14.32143524907759
1 25414U 98046B   15360.88849326 +.00000481 +00000-0 +22884-3 0  9996,2 25414 044.9958 268.2400 0005114 312.1377 047.9034 14.32144216907667
1 25414U 98046B   15361.79534782  .00000457  00000-0  21978-3 0  9990,2 25414  44.9957 263.9807 0005049 316.3077  43.7368 14.32145324907978
1 25414U 98046B   15361.86510594 +.00000407 +00000-0 +20157-3 0  9996,2 25414 044.9957 263.6531 0005042 316.6294 043.4154 14.32145124907806
1 25414U 98046B   15363.12075018  .00000335  00000-0  17506-3 0  9998,2 25414  44.9956 257.7557 0004943 322.4729  37.5771 14.32146063908166
1 25414U 98046B   15364.16711962  .00000293  00000-0  15959-3 0  9991,2 25414  44.9954 252.8412 0004863 327.3659  32.6885 14.32146854908314
1 25414U 98046B   15364.86469883 +.00000261 +00000-0 +14791-3 0  9998,2 25414 044.9953 249.5648 0004803 330.6049 029.4526 14.32147356908236
1 25414U 98046B   15365.77155127  .00000324  00000-0  17084-3 0  9990,2 25414  44.9951 245.3054 0004728 334.9076  25.1539 14.32148584908547
1 25414U 98046B   15365.91106693 +.00000319 +00000-0 +16909-3 0  9999,2 25414 044.9951 244.6502 0004715 335.5482 024.5140 14.32148716908381
1 25414U 98046B   16001.81791853  .00000297  00000-0  16097-3 0  9997,2 25414  44.9949 240.3909 0004633 339.9434  20.1229 14.32149579908698
1 25414U 98046B   16001.88767637 +.00000257 +00000-0 +14613-3 0  9995,2 25414 044.9949 240.0633 0004625 340.2994 019.7673 14.32149427908527
1 25414U 98046B   16003.14331632  .00000256  00000-0  14599-3 0  9990,2 25414  44.9946 234.1658 0004511 346.4814  13.5910 14.32150695908882
1 25414U 98046B   16003.91065140 +.00000254 +00000-0 +14534-3 0  9990,2 25414 044.9946 230.5615 0004437 350.2283 009.8476 14.32151409908817
1 25414U 98046B   16004.81750157  .00000269  00000-0  15066-3 0  9996,2 25414  44.9945 226.3021 0004355 354.7581   5.3219 14.32152277909124
1 25414U 98046B   16004.88725925 +.00000268 +00000-0 +15034-3 0  9992,2 25414 044.9944 225.9744 0004351 355.1022 004.9780 14.32152330908959
1 25414U 98046B   16006.07313948  .00000257  00000-0  14632-3 0  9994,2 25414  44.9943 220.4043 0004236   1.1627 358.9228 14.32153219909307
1 25414U 98046B   16006.91023077 +.00000282 +00000-0 +15539-3 0  9993,2 25414 044.9943 216.4725 0004156 005.4841 354.6050 14.32154025909240
1 25414U 98046B   16007.74732156  .00000291  00000-0  15871-3 0  9999,2 25414  44.9943 212.5406 0004071   9.9265 350.1661 14.32154777909544
1 25414U 98046B   16007.88683667 +.00000291 +00000-0 +15873-3 0  9998,2 25414 044.9942 211.8853 0004055 010.7076 349.3856 14.32154882909388
1 25414U 98046B   16008.86344198  .00000282  00000-0  15565-3 0  9998,2 25414  44.9942 207.2982 0003966  16.0079 344.0892 14.32155677909703
1 25414U 98046B   16008.93319947 +.00000283 +00000-0 +15574-3 0  9991,2 25414 044.9942 206.9706 0003961 016.4096 343.6877 14.32155746909537
1 25414U 98046B   16009.97956144  .00000259  00000-0  14718-3 0  9994,2 25414  44.9942 202.0558 0003875  22.1585 337.9428 14.32156635909862
1 25414U 98046B   16011.51422440  .00000250  00000-0  14364-3 0  9992,2 25414  44.9942 194.8474 0003741  30.6306 329.4758 14.32158062910088
1 25414U 98046B   16012.56058436  .00000340  00000-0  17673-3 0  9994,2 25414  44.9942 189.9326 0003647  36.5818 323.5276 14.32159601910234
1 25414U 98046B   16012.90937118 +.00000294 +00000-0 +16009-3 0  9995,2 25414 044.9942 188.2944 0003624 038.6577 321.4527 14.32159609910102
1 25414U 98046B   16013.81621581  .00000341  00000-0  17708-3 0  9990,2 25414  44.9943 184.0348 0003564  43.8903 316.2226 14.32160666910416
1 25414U 98046B   16013.88597310 +.00000318 +00000-0 +16885-3 0  9998,2 25414 044.9943 183.7072 0003560 044.2902 315.8228 14.32160602910244
1 25414U 98046B   16014.93233158  .00000319  00000-0  16931-3 0  9995,2 25414  44.9944 178.7924 0003478  50.4367 309.6785 14.32161481910578
1 25414U 98046B   16015.56014626 +.00000323 +00000-0 +17059-3 0  9999,2 25414 044.9944 175.8434 0003422 054.1668 305.9495 14.32162028910481
1 25414U 98046B   16016.04844651  .00000322  00000-0  17020-3 0  9999,2 25414  44.9945 173.5499 0003395  57.0408 303.0764 14.32162409910730
1 25414U 98046B   16017.44358883  .00000342  00000-0  17746-3 0  9998,2 25414  44.9947 166.9967 0003309  65.6050 294.5141 14.32163739910933
1 25414U 98046B   16018.48994457  .00000328  00000-0  17248-3 0  9997,2 25414  44.9948 162.0819 0003255  72.2005 287.9196 14.32164703911086
1 25414U 98046B   16018.83872959 +.00000329 +00000-0 +17284-3 0  9999,2 25414 044.9949 160.4439 0003232 074.3570 285.7632 14.32165085910952
1 25414U 98046B   16019.81532742  .00000335  00000-0  17492-3 0  9999,2 25414  44.9950 155.8568 0003194  80.5039 279.6168 14.32166076911274
1 25414U 98046B   16019.88508432 +.00000278 +00000-0 +15384-3 0  9999,2 25414 044.9950 155.5292 0003188 081.0065 279.1142 14.32165864911106
1 25414U 98046B   16020.86168105  .00000375  00000-0  18987-3 0  9998,2 25414  44.9951 150.9421 0003153  87.2133 272.9073 14.32167444911421
1 25414U 98046B   16022.53584514  .00000369  00000-0  18757-3 0  9998,2 25414  44.9953 143.0785 0003114  98.2214 261.8985 14.32169179911660
1 25414U 98046B   16022.81487231 +.00000383 +00000-0 +19256-3 0  9998,2 25414 044.9953 141.7680 0003112 099.9002 260.2195 14.32169521911522
1 25414U 98046B   16023.65195359  .00000371  00000-0  18833-3 0  9995,2 25414  44.9953 137.8362 0003112 105.2774 254.8416 14.32170239911828
1 25414U 98046B   16024.76806126  .00000333  00000-0  17419-3 0  9996,2 25414  44.9954 132.5938 0003109 112.4826 247.6350 14.32171019911985
1 25414U 98046B   16026.44222124  .00000251  00000-0  14419-3 0  9999,2 25414  44.9955 124.7301 0003139 123.3275 236.7872 14.32172069912227
1 25414U 98046B   16027.48857059  .00000207  00000-0  12775-3 0  9999,2 25414  44.9956 119.8154 0003166 130.0551 230.0573 14.32172659912377
1 25414U 98046B   16027.69784047 +.00000183 +00000-0 +11894-3 0  9992,2 25414 044.9956 118.8325 0003162 131.4675 228.6442 14.32172666912224
1 25414U 98046B   16028.67443281  .00000122  00000-0  96596-4 0  9999,2 25414  44.9957 114.2455 0003185 137.6136 222.4956 14.32173000912544
1 25414U 98046B   16030.20907676  .00000132  00000-0  10023-3 0  9995,2 25414  44.9959 107.0374 0003226 146.9566 213.1482 14.32174080912766
